NORAD_CAT_ID,OBJECT_NAME,OBJECT_TYPE,EPOCH,MEAN_MOTION,ECCENTRICITY,INCLINATION,RA_OF_ASC_NODE,ARG_OF_PERICENTER,MEAN_ANOMALY,BSTAR,MEAN_MOTION_DOT,MEAN_MOTION_DDOT,TLE_LINE0,TLE_LINE1,TLE_LINE2,SEMIMAJOR_AXIS,PERIOD,APOGEE,PERIGEE,DECAYED
55773.0,STARLINK-5833,PAYLOAD,2023-03-19 22:00:00,15.7319319,0.0003511,70.0001,109.786,265.0304,335.7015,-0.0072471,-0.00899917,0.0,0 STARLINK-5833,1 55773U 23028AJ  23078.91667824 -.00899917  00000-0 -72471-2 0  9993,2 55773  70.0001 109.7860 0003511 265.0304 335.7015 15.73193190  3206,6727.915,91.534,352.142,347.417,0.0
55773.0,STARLINK-5833,PAYLOAD,2023-03-20 14:00:01,15.71905927,0.0003642,69.9923,107.8961,276.5367,137.1226,-0.0078597,-0.00921371,0.0,0 STARLINK-5833,1 55773U 23028AJ  23079.58334491 -.00921371  00000-0 -78597-2 0  9993,2 55773  69.9923 107.8961 0003642 276.5367 137.1226 15.71905927  3315,6731.587,91.609,355.904,351.001,0.0
55773.0,STARLINK-5833,PAYLOAD,2023-03-20 22:00:01,15.71205721,0.0003411,69.9926,106.9568,267.7422,231.2938,-0.0073087,-0.0083991,0.0,0 STARLINK-5833,1 55773U 23028AJ  23079.91668981 -.00839910  00000-0 -73087-2 0  9990,2 55773  69.9926 106.9568 0003411 267.7422 231.2938 15.71205721  1307,6733.587,91.649,357.749,353.155,0.0
55773.0,STARLINK-5833,PAYLOAD,2023-03-21 14:00:01,15.69923169,0.0003588,69.9936,105.0799,275.2821,31.9891,5.9323e-06,5e-06,0.0,0 STARLINK-5833,1 55773U 23028AJ  23080.58335648  .00000500  00000-0  59323-5 0  9999,2 55773  69.9936 105.0799 0003588 275.2821  31.9891 15.69923169  3468,6737.254,91.724,361.536,356.701,0.0
55773.0,STARLINK-5833,PAYLOAD,2023-03-21 22:00:00,15.69874967,0.0003471,69.995,104.1424,266.3153,124.2414,0.00081119,0.00098278,0.0,0 STARLINK-5833,1 55773U 23028AJ  23080.91667824  .00098278  00000-0  81119-3 0  9995,2 55773  69.9950 104.1424 0003471 266.3153 124.2414 15.69874967  1308,6737.392,91.727,361.595,356.918,0.0
55773.0,STARLINK-5833,PAYLOAD,2023-03-22 22:00:00,15.69870672,0.0003485,69.9993,101.33,267.1084,13.4563,0.00091616,0.00111174,0.0,0 STARLINK-5833,1 55773U 23028AJ  23081.91667824  .00111174  00000-0  91616-3 0  9990,2 55773  69.9993 101.3300 0003485 267.1084  13.4563 15.69870672  3679,6737.404,91.727,361.617,356.921,0.0
55773.0,STARLINK-5833,PAYLOAD,2023-03-23 06:00:00,15.69948973,0.0003549,70.0007,100.3928,271.0925,92.7945,-0.00053972,-0.00064682,0.0,0 STARLINK-5833,1 55773U 23028AJ  23082.25001157 -.00064682  00000-0 -53972-3 0  9995,2 55773  70.0007 100.3928 0003549 271.0925  92.7945 15.69948973  3722,6737.18,91.723,361.436,356.654,0.0
55773.0,STARLINK-5833,PAYLOAD,2023-03-23 14:00:01,15.699583,0.0003557,70.0003,99.4554,269.02,178.2436,-0.00044938,-0.0005398,0.0,0 STARLINK-5833,1 55773U 23028AJ  23082.58335648 -.00053980  00000-0 -44938-3 0  9997,2 55773  70.0003  99.4554 0003557 269.0200 178.2436 15.69958300  1305,6737.153,91.722,361.415,356.622,0.0
55773.0,STARLINK-5833,PAYLOAD,2023-03-24 17:00:11,15.6989453,0.0003711,70.0005,96.2921,269.7095,54.4371,0.00025069,0.00030003,0.0,0 STARLINK-5833,1 55773U 23028AJ  23083.70846065  .00030003  00000-0  25069-3 0  9995,2 55773  70.0005  96.2921 0003711 269.7095  54.4371 15.69894530  3951,6737.336,91.726,361.701,356.701,0.0
55773.0,STARLINK-5833,PAYLOAD,2023-03-24 22:00:01,15.69849839,0.0003669,70.0007,95.7068,264.6197,155.9902,0.0013397,0.00163557,0.0,0 STARLINK-5833,1 55773U 23028AJ  23083.91668981  .00163557  00000-0  13397-2 0  9998,2 55773  70.0007  95.7068 0003669 264.6197 155.9902 15.69849839  1304,6737.464,91.729,361.801,356.857,0.0
55773.0,STARLINK-5833,PAYLOAD,2023-03-25 03:51:37,15.6990484,0.000357,70.0001,95.0209,267.2223,92.8564,-2.2116e-05,-2.869e-05,0.0,0 STARLINK-5833,1 55773U 23028AJ  23084.16085057 -.00002869  00000-0 -22116-4 0  9994,2 55773  70.0001  95.0209 0003570 267.2223  92.8564 15.69904840  4027,6737.306,91.725,361.576,356.766,0.0
55773.0,STARLINK-5833,PAYLOAD,2023-03-25 09:58:38,15.69912817,0.0003249,70.0003,94.3044,265.6057,94.4767,0.00012335,0.00014638,0.0,0 STARLINK-5833,1 55773U 23028AJ  23084.41571831  .00014638  00000-0  12335-3 0  9998,2 55773  70.0003  94.3044 0003249 265.6057  94.4767 15.69912817  4068,6737.283,91.725,361.337,356.959,0.0
55773.0,STARLINK-5833,PAYLOAD,2023-03-25 17:37:22,15.69951232,0.000391,70.0006,93.4087,263.9564,96.1186,0.00025891,0.00031072,0.0,0 STARLINK-5833,1 55773U 23028AJ  23084.73429377  .00031072  00000-0  25891-3 0  9992,2 55773  70.0006  93.4087 0003910 263.9564  96.1186 15.69951232  4111,6737.174,91.723,361.673,356.404,0.0
55773.0,STARLINK-5833,PAYLOAD,2023-03-26 02:47:54,15.69918165,0.0004055,70.0011,92.3334,280.1385,79.9353,-1.3445e-05,-1.829e-05,0.0,0 STARLINK-5833,1 55773U 23028AJ  23085.11659899 -.00001829  00000-0 -13445-4 0  9991,2 55773  70.0011  92.3334 0004055 280.1385  79.9353 15.69918165  4172,6737.268,91.725,361.865,356.401,0.0
55773.0,STARLINK-5833,PAYLOAD,2023-03-26 10:26:39,15.69920934,0.000316,70.003,91.4396,249.1021,110.9836,-2.0884e-05,-2.722e-05,0.0,0 STARLINK-5833,1 55773U 23028AJ  23085.43517953 -.00002722  00000-0 -20884-4 0  9998,2 55773  70.0030  91.4396 0003160 249.1021 110.9836 15.69920934  4224,6737.26,91.724,361.254,356.996,0.0
55773.0,STARLINK-5833,PAYLOAD,2023-03-26 18:05:24,15.6993871,0.0003531,70.0014,90.5428,256.7935,103.2867,5.1043e-05,5.933e-05,0.0,0 STARLINK-5833,1 55773U 23028AJ  23085.75375919  .00005933  00000-0  51043-4 0  9993,2 55773  70.0014  90.5428 0003531 256.7935 103.2867 15.69938710  4277,6737.209,91.723,361.453,356.695,0.0
55773.0,STARLINK-5833,PAYLOAD,2023-03-27 06:00:00,15.69940207,0.0003583,70.0013,89.1468,257.2384,26.6731,-0.00030194,-0.00036388,0.0,0 STARLINK-5833,1 55773U 23028AJ  23086.25001157 -.00036388  00000-0 -30194-3 0  9992,2 55773  70.0013  89.1468 0003583 257.2384  26.6731 15.69940207  4356,6737.205,91.723,361.484,356.656,0.0
55773.0,STARLINK-5833,PAYLOAD,2023-03-27 14:00:01,15.69922993,0.0003445,70.0011,88.2096,261.9201,105.327,-5.6712e-05,-7.026e-05,0.0,0 STARLINK-5833,1 55773U 23028AJ  23086.58334491 -.00007026  00000-0 -56712-4 0  9990,2 55773  70.0011  88.2096 0003445 261.9201 105.3270 15.69922993  1305,6737.254,91.724,361.44,356.798,0.0
55773.0,STARLINK-5833,PAYLOAD,2023-03-27 22:00:00,15.69908343,0.0003459,70.0014,87.2728,258.6729,191.9077,0.00041029,0.00049381,0.0,0 STARLINK-5833,1 55773U 23028AJ  23086.91667824  .00049381  00000-0  41029-3 0  9998,2 55773  70.0014  87.2728 0003459 258.6729 191.9077 15.69908343  1301,6737.296,91.725,361.492,356.831,0.0
55773.0,STARLINK-5833,PAYLOAD,2023-03-28 09:50:57,15.69932954,0.0003354,70.0017,85.8862,253.0512,107.0317,6.3447e-05,7.426e-05,0.0,0 STARLINK-5833,1 55773U 23028AJ  23087.41039339  .00007426  00000-0  63447-4 0  9991,2 55773  70.0017  85.8862 0003354 253.0512 107.0317 15.69932954  4538,6737.226,91.724,361.35,356.831,0.0
55773.0,STARLINK-5833,PAYLOAD,2023-03-28 11:22:43,15.69930418,0.0003243,70.0018,85.7067,255.9302,104.1533,4.9334e-05,5.725e-05,0.0,0 STARLINK-5833,1 55773U 23028AJ  23087.47411073  .00005725  00000-0  49334-4 0  9995,2 55773  70.0018  85.7067 0003243 255.9302 104.1533 15.69930418  4553,6737.233,91.724,361.283,356.913,0.0
55773.0,STARLINK-5833,PAYLOAD,2023-03-28 17:29:44,15.69925894,0.000245,70.0023,84.9903,270.9782,89.1133,3.5694e-05,4.082e-05,0.0,0 STARLINK-5833,1 55773U 23028AJ  23087.72898243  .00004082  00000-0  35694-4 0  9990,2 55773  70.0023  84.9903 0002450 270.9782  89.1133 15.69925894  4580,6737.246,91.724,360.762,357.46,0.0
55773.0,STARLINK-5833,PAYLOAD,2023-03-29 11:50:45,15.69930995,0.0003235,70.0008,82.8408,269.1077,90.9748,4.48e-05,5.179e-05,0.0,0 STARLINK-5833,1 55773U 23028AJ  23088.49357793  .00005179  00000-0  44800-4 0  9992,2 55773  70.0008  82.8408 0003235 269.1077  90.9748 15.69930995  4714,6737.231,91.724,361.276,356.917,0.0
55773.0,STARLINK-5833,PAYLOAD,2023-03-30 01:36:31,15.69922463,0.0003451,70.0025,81.2296,271.5214,88.5586,2.0626e-05,2.268e-05,0.0,0 STARLINK-5833,1 55773U 23028AJ  23089.06703115  .00002268  00000-0  20626-4 0  9995,2 55773  70.0025  81.2296 0003451 271.5214  88.5586 15.69922463  4793,6737.256,91.724,361.446,356.796,0.0
55773.0,STARLINK-5833,PAYLOAD,2023-03-30 10:47:02,15.69909341,0.0002924,70.0007,80.1533,265.4561,94.6301,-2.3646e-05,-3.053e-05,0.0,0 STARLINK-5833,1 55773U 23028AJ  23089.44933944 -.00003053  00000-0 -23646-4 0  9992,2 55773  70.0007  80.1533 0002924 265.4561  94.6301 15.69909341  4856,6737.293,91.725,361.128,357.188,0.0
55773.0,STARLINK-5833,PAYLOAD,2023-03-31 11:15:04,15.69928276,0.0003336,70.0006,77.2863,274.4521,85.6294,2.7487e-05,3.094e-05,0.0,0 STARLINK-5833,1 55773U 23028AJ  23090.46879807  .00003094  00000-0  27487-4 0  9993,2 55773  70.0006  77.2863 0003336 274.4521  85.6294 15.69928276  5010,6737.239,91.724,361.352,356.857,0.0
55773.0,STARLINK-5833,PAYLOAD,2023-04-01 02:32:35,15.69918936,0.0002995,70.0014,75.4955,285.9867,74.0999,7.1121e-06,6.43e-06,0.0,0 STARLINK-5833,1 55773U 23028AJ  23091.10597220  .00000643  00000-0  71121-5 0  9993,2 55773  70.0014  75.4955 0002995 285.9867  74.0999 15.69918936  5118,6737.266,91.724,361.149,357.113,0.0
55773.0,STARLINK-5833,PAYLOAD,2023-04-01 10:11:21,15.69909397,0.0002566,70.0019,74.6015,266.2022,93.8881,-2.1097e-05,-2.746e-05,0.0,0 STARLINK-5833,1 55773U 23028AJ  23091.42455962 -.00002746  00000-0 -21097-4 0  9998,2 55773  70.0019  74.6015 0002566 266.2022  93.8881 15.69909397  5176,6737.293,91.725,360.887,357.429,0.0
55773.0,STARLINK-5833,PAYLOAD,2023-04-02 01:28:52,15.69931771,0.0003362,70.0,72.8058,275.8005,84.2807,1.521e-05,1.617e-05,0.0,0 STARLINK-5833,1 55773U 23028AJ  23092.06171588  .00001617  00000-0  15210-4 0  9992,2 55773  70.0000  72.8058 0003362 275.8005  84.2807 15.69931771  5268,6737.229,91.724,361.359,356.829,0.0
55773.0,STARLINK-5833,PAYLOAD,2023-04-02 10:39:23,15.69926441,0.0002766,70.0014,71.7339,275.384,84.704,1.0399e-05,1.038e-05,0.0,0 STARLINK-5833,1 55773U 23028AJ  23092.44401895  .00001038  00000-0  10399-4 0  9991,2 55773  70.0014  71.7339 0002766 275.3840  84.7040 15.69926441  5332,6737.244,91.724,360.973,357.246,0.0
